STARLINK-31263          
1 58832U 24017G   26068.56471213 -.00000280  00000+0  26592-5 0  9990
2 58832  53.1593 194.4870 0000965  55.7010 304.4082 15.30192685120290
TEVEL2-1                
1 63217U 25052H   26068.64782323  .00020683  00000+0  70600-3 0  9994
2 63217  97.3991 324.7682 0004767 104.8919 255.2849 15.30341923 54855
